{
    "links": {
        "self": "http://www.neowsapp.com/rest/v1/neo/3843140?api_key=iIulBulltgU6a56xZRHN4H3l9WmuAYTsLGpBGhQ2"
    },
    "id": "3843140",
    "neo_reference_id": "3843140",
    "name": "(2019 NO2)",
    "designation": "2019 NO2",
    "nasa_jpl_url": "http://ssd.jpl.nasa.gov/sbdb.cgi?sstr=3843140",
    "absolute_magnitude_h": 28.3,
    "estimated_diameter": {
        "kilometers": {
            "estimated_diameter_min": 0.0058150704,
            "estimated_diameter_max": 0.0130028927
        },
        "meters": {
            "estimated_diameter_min": 5.8150703965,
            "estimated_diameter_max": 13.0028927004
        },
        "miles": {
            "estimated_diameter_min": 0.0036133161,
            "estimated_diameter_max": 0.0080796204
        },
        "feet": {
            "estimated_diameter_min": 19.0783155595,
            "estimated_diameter_max": 42.6604104873
        }
    },
    "is_potentially_hazardous_asteroid": false,
    "close_approach_data": [
        {
            "close_approach_date": "2012-04-11",
            "close_approach_date_full": "2012-Apr-11 11:37",
            "epoch_date_close_approach": 1334144220000,
            "relative_velocity": {
                "kilometers_per_second": "20.4351754339",
                "kilometers_per_hour": "73566.6315621062",
                "miles_per_hour": "45711.4439281321"
            },
            "miss_distance": {
                "astronomical": "0.3735198465",
                "lunar": "145.2992202885",
                "kilometers": "55877773.439126955",
                "miles": "34720838.388403779"
            },
            "orbiting_body": "Earth"
        },
        {
            "close_approach_date": "2019-07-03",
            "close_approach_date_full": "2019-Jul-03 03:35",
            "epoch_date_close_approach": 1562124900000,
            "relative_velocity": {
                "kilometers_per_second": "9.70286087",
                "kilometers_per_hour": "34930.2991318922",
                "miles_per_hour": "21704.329480036"
            },
            "miss_distance": {
                "astronomical": "0.0062447414",
                "lunar": "2.4292044046",
                "kilometers": "934200.012140818",
                "miles": "580484.9700985684"
            },
            "orbiting_body": "Moon"
        },
        {
            "close_approach_date": "2019-07-03",
            "close_approach_date_full": "2019-Jul-03 08:40",
            "epoch_date_close_approach": 1562143200000,
            "relative_velocity": {
                "kilometers_per_second": "8.8611500243",
                "kilometers_per_hour": "31900.1400873415",
                "miles_per_hour": "19821.5064892706"
            },
            "miss_distance": {
                "astronomical": "0.0043116745",
                "lunar": "1.6772413805",
                "kilometers": "645017.321333315",
                "miles": "400795.178357147"
            },
            "orbiting_body": "Earth"
        },
        {
            "close_approach_date": "2024-10-23",
            "close_approach_date_full": "2024-Oct-23 09:24",
            "epoch_date_close_approach": 1729675440000,
            "relative_velocity": {
                "kilometers_per_second": "3.498580397",
                "kilometers_per_hour": "12594.8894290464",
                "miles_per_hour": "7825.9744899539"
            },
            "miss_distance": {
                "astronomical": "1.4170198424",
                "lunar": "551.2207186936",
                "kilometers": "211983150.170775688",
                "miles": "131720221.5682849744"
            },
            "orbiting_body": "Juptr"
        }
    ],
    "orbital_data": {
        "orbit_id": "2",
        "orbit_determination_date": "2019-07-09 05:47:36",
        "first_observation_date": "2019-07-05",
        "last_observation_date": "2019-07-09",
        "data_arc_in_days": 4,
        "observations_used": 23,
        "orbit_uncertainty": "7",
        "minimum_orbit_intersection": ".000941801",
        "jupiter_tisserand_invariant": "3.308",
        "epoch_osculation": "2459000.5",
        "eccentricity": ".5766988707887867",
        "semi_major_axis": "2.355632517937781",
        "inclination": "1.468842509986777",
        "ascending_node_longitude": "101.0716240188216",
        "orbital_period": "1320.56486465818",
        "perihelion_distance": ".9971419048497162",
        "perihelion_argument": "159.240337100379",
        "aphelion_distance": "3.714123131025845",
        "perihelion_time": "2458651.133667643974",
        "mean_anomaly": "95.24097074983493",
        "mean_motion": ".2726106150743181",
        "equinox": "J2000",
        "orbit_class": {
            "orbit_class_type": "APO",
            "orbit_class_description": "Near-Earth asteroid orbits which cross the Earth’s orbit similar to that of 1862 Apollo",
            "orbit_class_range": "a (semi-major axis) > 1.0 AU; q (perihelion) < 1.017 AU"
        }
    },
    "is_sentry_object": false
}